[{"OBJECT_NAME":"POPACS 3","OBJECT_ID":"2013-055F","EPOCH":"2026-03-08T18:51:12.850560","MEAN_MOTION":14.53938339,"ECCENTRICITY":0.05603673,"INCLINATION":81.0053,"RA_OF_ASC_NODE":337.8959,"ARG_OF_PERICENTER":15.4614,"MEAN_ANOMALY":346.2932,"EPHEMERIS_TYPE":0,"CLASSIFICATION_TYPE":"U","NORAD_CAT_ID":39270,"ELEMENT_SET_NO":999,"REV_AT_EPOCH":62395,"BSTAR":0.00046789991,"MEAN_MOTION_DOT":0.00019405,"MEAN_MOTION_DDOT":0},{"OBJECT_NAME":"COSMOS 2512","OBJECT_ID":"2015-071B","EPOCH":"2026-03-09T22:11:03.351840","MEAN_MOTION":14.75269525,"ECCENTRICITY":0.00050302,"INCLINATION":98.0735,"RA_OF_ASC_NODE":91.631,"ARG_OF_PERICENTER":350.8727,"MEAN_ANOMALY":9.239,"EPHEMERIS_TYPE":0,"CLASSIFICATION_TYPE":"U","NORAD_CAT_ID":41099,"ELEMENT_SET_NO":999,"REV_AT_EPOCH":54851,"BSTAR":0.00056505364,"MEAN_MOTION_DOT":3.775e-5,"MEAN_MOTION_DDOT":0}]
